"Company Name","Address","City","State","ZIP Code","Record Type","Latitude","Longitude","Primary SIC Code","Cuisine Code"
"1000 Degrees Neapolitan Pizza","1310 College Ave # 270","Boulder","CO","80302","Verified","040.007046","-105.275884","581222",""
"A Cup Of Peace","3216 Arapahoe Ave # B","Boulder","CO","80303","Verified","040.014330","-105.250343","549915",""
"Abo's Pizza","2761 Iris Ave","Boulder","CO","80304","Verified","040.036548","-105.259609","581222",""
"Abo's Pizza","637 S Broadway St # S","Boulder","CO","80305","Verified","039.981954","-105.246866","581222",""
"Acousti Flo","5735 Arapahoe Ave","Boulder","CO","80303","Verified","040.016003","-105.220047","581208",""
"Ados","1143 13th St #101","Boulder","CO","80302","Verified","040.008165","-105.276587","581301",""
"Aim House","2000 21st St","Boulder","CO","80302","Verified","040.020485","-105.268045","581208",""
"Alferd Packer Restaurant","1669 Euclid Ave #1","Boulder","CO","80302","Verified","040.018700","-105.287200","581208",""
"Ali Baba Grill","3033 28th St","Boulder","CO","80301","Verified","040.029901","-105.258852","581208","R"
"Aloy Thai Cuisine","2720 Canyon Blvd","Boulder","CO","80302","Verified","040.017222","-105.259065","549941",""
"Alpine Modern Cafe","904 College Ave","Boulder","CO","80302","Verified","040.006978","-105.281738","581208",""
"Amu","1227 Spruce St","Boulder","CO","80302","Verified","040.019354","-105.279660","581208",""
"Aperitivo","5530 Spine Rd","Boulder","CO","80301","Verified","040.073800","-105.202300","581208",""
"Arabesque","1634 Walnut St # 101","Boulder","CO","80302","Verified","040.017858","-105.273395","581208","j"
"Arcana","909 Walnut St","Boulder","CO","80302","Verified","040.016431","-105.283251","581208",""
"Asian Deli","2835 28th St","Boulder","CO","80301","Verified","040.028213","-105.258577","581208","D"
"Attic Bar & Bistro Boulder","949 Walnut St # 200","Boulder","CO","80302","Verified","040.016618","-105.282453","581208","3"
"Audrey Jane's Pizza Garage","2675 13th St","Boulder","CO","80304","Verified","040.025227","-105.280751","581208","P"
"B J Restaurant","1690 28th St","Boulder","CO","80301","Verified","040.041700","-105.224400","581208",""
"Baby Doe's Coffee & Bakery","1669 Euclid Ave #1","Boulder","CO","80302","Verified","040.018700","-105.287200","581228",""
"Bacco Trattoria-Mozzarella Bar","1200 Yarmouth Ave #A","Boulder","CO","80304","Verified","040.057503","-105.281564","581208","I"
"Backcountry Pizza & Tap House","2319 Arapahoe Ave","Boulder","CO","80302","Verified","040.015026","-105.264203","581208","e"
"Bartaco","1048 Pearl St #101","Boulder","CO","80302","Verified","040.017198","-105.281842","581208","p"
"Basta","3601 Arapahoe Ave #155","Boulder","CO","80303","Verified","040.015202","-105.247772","581222",""
"Beehive Restaurant","2018 10th St","Boulder","CO","80302","Verified","040.017657","-105.282525","581208",""
"Ben & Jerry's","1203 Pearl St","Boulder","CO","80302","Verified","040.018047","-105.279846","581203",""
"Big Daddy Bagels","4800 Baseline Rd #B101","Boulder","CO","80303","Verified","039.998439","-105.234243","581208","3"
"Biju's Little Curry Shop Whole","2905 Pearl St","Boulder","CO","80301","Verified","040.023754","-105.255852","581208","F"
"Bitter Bar","835 Walnut St","Boulder","CO","80302","Verified","040.016241","-105.284240","581208",""
"BJ'S Restaurant & Brewhouse","1125 Pearl St","Boulder","CO","80302","Verified","040.018054","-105.280704","581208","3"
"BJ'S Restaurant & Brewhouse","1690 28th St","Boulder","CO","80301","Verified","040.041700","-105.224400","581208","3"
"Black Cat Farm Table Bistro","1964 13th St","Boulder","CO","80302","Verified","040.017916","-105.278360","581208","A"
"Black Pepper Pho","2770 Pearl St # B","Boulder","CO","80302","Verified","040.021822","-105.258912","581208","W"
"Blackbelly","1606 Conestoga St #3","Boulder","CO","80301","Verified","040.015106","-105.227549","581208",""
"Blackjack Pizza","3023 Walnut St","Boulder","CO","80301","Verified","040.020477","-105.251678","581222",""
"Blofish","1932 14th St","Boulder","CO","80302","Verified","040.018073","-105.277019","581208",""
"Bluff Street Bar & Billiards","2690 28th St # E","Boulder","CO","80301","Verified","040.027041","-105.257614","581301",""
"Boss Lady Pizza","1129 13th St #B","Boulder","CO","80302","Verified","040.007891","-105.276586","581208","I"
"Boulder Beer Co","1010 69th St","Boulder","CO","80303","Verified","040.004660","-105.189442","581208","3"
"Boulder Cork","3295 30th St","Boulder","CO","80301","Verified","040.034509","-105.254105","581208","3"
"Boulder Dushanbe Teahouse","1770 13th St","Boulder","CO","80302","Verified","040.015453","-105.277210","581208","3"
"Boulder Food Rescue","710 31st St","Boulder","CO","80303","Verified","040.000631","-105.251870","581208",""
"Boulder Homemade","3900 Walnut St","Boulder","CO","80301","Verified","040.018784","-105.244413","581208",""
"Boulder Ice Cream","3220 Prairie Ave","Boulder","CO","80301","Verified","040.021809","-105.250940","202498",""
"Boulder Mediterranean Deli","2690 28th St","Boulder","CO","80301","Verified","040.027041","-105.257614","581208","D"
"Boulder Pho","2855 28th St","Boulder","CO","80301","Verified","040.028301","-105.258577","581208","W"
"Boulder Riverside","1724 Broadway","Boulder","CO","80302","Verified","040.014516","-105.278481","581208",""
"Boulder Salad","1310 College Ave # 200","Boulder","CO","80302","Verified","040.007046","-105.275884","581208",""
"Boulder Valley Ico","637b S Broadway St # 117","Boulder","CO","80305","Verified","039.981954","-105.246866","581208",""
"Boulder's Dinner Theatre","5501 Arapahoe Ave","Boulder","CO","80303","Verified","040.015439","-105.224921","792207",""
"Bova's Pantry","1325 Broadway #101","Boulder","CO","80302","Verified","040.009898","-105.277055","541103",""
"Bramble & Hare","1970 13th St","Boulder","CO","80302","Verified","040.017887","-105.278374","581208",""
"Brasserie Ten","1011 Walnut St # 100","Boulder","CO","80302","Verified","040.016694","-105.282078","581208","3"
"Breadworks Cafe","2644 Broadway St","Boulder","CO","80304","Verified","040.024951","-105.281867","546102",""
"Breggos Inc","4141 Saint Croix St","Boulder","CO","80301","Verified","040.050002","-105.251208","581208",""
"Brewing Market","2525 Arapahoe Ave # D4","Boulder","CO","80302","Verified","040.015498","-105.262110","581228",""
"Buddha Cafe","2719 Iris Ave","Boulder","CO","80304","Verified","040.036880","-105.260147","581208",""
"Buff Restaurant","2600 Canyon Blvd","Boulder","CO","80302","Verified","040.018002","-105.259078","581208","A"
"Burger King","1770 28th St","Boulder","CO","80301","Verified","040.018669","-105.257675","581208","e"
"Burger King","5320 Spine Rd","Boulder","CO","80301","Verified","040.071266","-105.201638","581208","e"
"Cafe Aion","1235 Pennsylvania Ave #A","Boulder","CO","80302","Verified","040.008909","-105.276951","737415",""
"Cafe Blue","5280 Spine Rd #103","Boulder","CO","80301","Verified","040.070293","-105.201652","581208","3"
"Cafe Mexicali","2850 Baseline Rd # 4","Boulder","CO","80303","Verified","039.999753","-105.256083","581208","V"
"Caffe Sole","637 S Broadway St # R","Boulder","CO","80305","Verified","039.981954","-105.246866","581208","A"
"Canyon Cafe","1777 6th St","Boulder","CO","80302","Verified","040.014425","-105.288877","581208",""
"Carelli's Of Boulder","645 30th St","Boulder","CO","80303","Verified","039.999058","-105.253274","581208","I"
"Caspian Deli & Grocery","2607 Pearl St","Boulder","CO","80302","Verified","040.021988","-105.260803","541105",""
"CAVA","1695 29th St #1248","Boulder","CO","80301","Verified","040.019748","-105.255616","581208","9"
"Centro Mexican Kitchen","950 Pearl St","Boulder","CO","80302","Verified","040.017185","-105.282539","581208","V"
"Century Boulder","1700 29th St","Boulder","CO","80301","Verified","040.017536","-105.254850","783201",""
"Chautauqua Box Office","900 Baseline Rd","Boulder","CO","80302","Verified","039.999933","-105.281930","792213",""
"Chautauqua Dining Hall","900 Baseline Rd","Boulder","CO","80302","Verified","039.999933","-105.281930","581208","3"
"Chez Thuy","2655 28th St","Boulder","CO","80301","Verified","040.027005","-105.258831","581208","Y"
"Chicken On The Hill","1335 Broadway","Boulder","CO","80302","Verified","040.010228","-105.277075","581208","f"
"Chimera Inc","2014 10th St","Boulder","CO","80302","Verified","040.017695","-105.282387","581208",""
"China Gourmet","3970 Broadway St # 102","Boulder","CO","80304","Verified","040.047707","-105.280746","581208","C"
"Chipotle Mexican Grill","1650 28th St # 1224","Boulder","CO","80301","Verified","040.016041","-105.257156","581208","V"
"Chipotle Mexican Grill","919 Pearl St","Boulder","CO","80302","Verified","040.017518","-105.283344","581208","V"
"Chop 5","2525 Arapahoe Ave # H6","Boulder","CO","80302","Verified","040.015498","-105.262110","581208",""
"Coma Mexican Grill","4800 Baseline Rd","Boulder","CO","80303","Verified","039.998439","-105.234243","581208","V"
"Concepts Restaurants","1240 Pine St","Boulder","CO","80302","Verified","040.019875","-105.279535","581208",""
"Corner Bar","2115 13th St","Boulder","CO","80302","Verified","040.019414","-105.279444","581208",""
"Corner LLC","1100 13th St","Boulder","CO","80302","Verified","040.007483","-105.275852","581208","3"
"Corrida","1023 Walnut St #400","Boulder","CO","80302","Verified","040.016562","-105.281851","581208",""
"Cosmo's Pizza","1325 Broadway # 108","Boulder","CO","80302","Verified","040.009898","-105.277055","581222",""
"Cosmo's Pizza","659 30th St","Boulder","CO","80303","Verified","039.999331","-105.253161","581222",""
"Cosmos Pizza","3117 28th St","Boulder","CO","80301","Verified","040.031266","-105.258597","581208","P"
"Courtyard By Marriott Boulder","4710 Pearl East Cir","Boulder","CO","80301","Verified","040.021901","-105.242949","701101",""
"Crossing Cultures LLC","6525 Gunpark Dr # 370","Boulder","CO","80301","Verified","040.070716","-105.200897","581208",""
"Culinary Hearts","2825 Wilderness Pl # 800","Boulder","CO","80301","Verified","040.024694","-105.249651","581208",""
"Cured","1825 Pearl St # B","Boulder","CO","80302","Verified","040.019958","-105.271482","581208","X"
"Curry N Kebob","3050 28th St","Boulder","CO","80301","Verified","040.030105","-105.258005","581208","t"
"Dagabi Cucina","3970 Broadway St","Boulder","CO","80304","Verified","040.047707","-105.280746","581208","I"
"Daikon-Banh Mi Shop","1805 29th St #1138","Boulder","CO","80301","Verified","040.019300","-105.256829","581208",""
"Dairy Queen","685 30th St","Boulder","CO","80303","Verified","039.999607","-105.253274","581203",""
"Dang Minh Nguyet Inc","2860 Arapahoe Ave","Boulder","CO","80303","Verified","040.014259","-105.256874","581301",""
"Deli At Flatiron Park","2100 Central Ave","Boulder","CO","80301","Verified","040.021637","-105.217171","581208","D"
"Deli Zone","2900 Valmont Rd # D1","Boulder","CO","80301","Verified","040.028734","-105.255592","581208","D"
"Deli Zone","4800 Baseline Rd # D104","Boulder","CO","80303","Verified","039.998439","-105.234243","581208","3"
"Deli Zone Gunbarrel","5365 Spine Rd # A","Boulder","CO","80301","Verified","040.071751","-105.202687","581208","D"
"Deli Zone On The Hill","1322 College Ave","Boulder","CO","80302","Verified","040.007164","-105.275825","581208","D"
"Dimos Pizza","1129 13th St","Boulder","CO","80302","Verified","040.007891","-105.276586","581208","P"
"Dish","1918 Pearl St #100","Boulder","CO","80302","Verified","040.019687","-105.270158","581208","3"
"Domino's","1538 28th St","Boulder","CO","80303","Verified","040.013596","-105.258308","581222",""
"Domino's","1538 Arapahoe Rd #B","Boulder","CO","80302","Verified","040.018700","-105.287200","581222",""
"Domino's","6545 Gunpark Dr # 230","Boulder","CO","80301","Verified","040.070716","-105.200897","581222",""
"Dot's Diner","2716 28th St","Boulder","CO","80301","Verified","040.027682","-105.257722","581208","3"
"Dot's Diner On The Hill","1333 Broadway","Boulder","CO","80302","Verified","040.009944","-105.277313","581208","t"
"Dots Diner On The Hill","1325 Broadway # 214","Boulder","CO","80302","Verified","040.009898","-105.277055","581208","t"
"Dougs Day Diner","2400 Arapahoe Ave","Boulder","CO","80302","Verified","040.014329","-105.262659","581208","t"
"DQ Grill & Chill","3265 28th St","Boulder","CO","80301","Verified","040.033790","-105.259153","581208","3"
"Eat At Home LLC","2328 Pearl St","Boulder","CO","80302","Verified","040.020771","-105.264893","581208",""
"Efrain's-Boulder Mexican","1630 63rd St # 10","Boulder","CO","80301","Verified","040.015483","-105.206024","581208","V"
"Eggcredible Cafe","5397 S Boulder Rd","Boulder","CO","80303","Verified","039.986435","-105.227963","581208",""
"Einstein Bros Bagels","1693 28th St","Boulder","CO","80301","Verified","040.016975","-105.258934","546101",""
"Einstein Bros Bagels","2400 Baseline Rd","Boulder","CO","80305","Verified","039.999856","-105.262964","546101",""
"Eldorado","1840 Commerce St","Boulder","CO","80301","Verified","040.018535","-105.231448","581208",""
"Element Bistro","6315 Lookout Rd","Boulder","CO","80301","Verified","040.071911","-105.206427","581208","3"
"Etai's At Cpu Porter","1925 Colorado Ave","Boulder","CO","80301","Verified","040.041700","-105.224400","581208",""
"Etai's Bakery Cafe","3415 Colorado Ave","Boulder","CO","80303","Verified","040.007574","-105.251191","581208","X"
"Everyday Good Eating","2205 Balsam Dr","Boulder","CO","80304","Verified","040.027097","-105.267745","581208",""
"Falafel King","5461 Western Ave","Boulder","CO","80301","Verified","040.018227","-105.226203","581220",""
"Falafel King Restaurant","1314 Pearl St","Boulder","CO","80302","Verified","040.017961","-105.278142","581208","k"
"Farraddays' Restaurant","401 Main St","Boulder","CO","80302","Verified","040.063068","-105.409050","581208",""
"Fat Shack Boulder LLC","1110 13th St","Boulder","CO","80302","Verified","040.007617","-105.275874","581208",""
"FATE Brewing Co","1600 38th St #100","Boulder","CO","80301","Verified","040.015077","-105.245802","581208","e"
"Fior Di Latte","1433 Pearl St","Boulder","CO","80302","Verified","040.018905","-105.276606","581208",""
"Fior Di Latte Inc West","1021 Pearl St","Boulder","CO","80302","Verified","040.017763","-105.282131","581208",""
"Firehouse Subs","1695 29th St # 1252","Boulder","CO","80301","Verified","040.019748","-105.255616","581208","D"
"Five Guys","1855 29th St # 1154","Boulder","CO","80301","Verified","040.019249","-105.256577","581208","e"
"Five Spice","3325 28th St # 5","Boulder","CO","80301","Verified","040.035281","-105.259788","581208","Y"
"Flagstaff House","1138 Flagstaff Rd","Boulder","CO","80302","Verified","040.007554","-105.295139","581208","3"
"Flagstaff House Restaurant","Flagstaff Rd","Boulder","CO","80302","Verified","040.018700","-105.287200","581208","1"
"Flatiron Meal Plan","1163 13th St # A","Boulder","CO","80302","Verified","040.008430","-105.276405","549910",""
"Flower Child","2580 Arapahoe Ave","Boulder","CO","80302","Verified","040.014328","-105.260490","581208","z"
"Flower Pepper Restaurant","2655 Broadway St","Boulder","CO","80304","Verified","040.025165","-105.282455","581206",""
"Folsom Thai","1575 Folsom St # 101","Boulder","CO","80302","Verified","040.015204","-105.263374","581208","T"
"Foolish Craig's Cafe","1611 Pearl St","Boulder","CO","80302","Verified","040.019335","-105.274504","581208","A"
"Frank's Chophouse","921 Walnut St","Boulder","CO","80302","Verified","040.016530","-105.282878","581208","0"
"Frasca Food & Wine","1738 Pearl St","Boulder","CO","80302","Verified","040.019137","-105.272423","581208","3"
"French Quarter Brasserie-Bldr","1207 Pearl St","Boulder","CO","80302","Verified","040.018229","-105.279830","581208","1"
"Fresh Thyme Farmers Market","2690 28th St # F","Boulder","CO","80301","Verified","040.027041","-105.257614","541105",""
"Fresh Thymes Eatery","2500 30th St #101","Boulder","CO","80301","Verified","040.026727","-105.253263","581208","3"
"Fringe Pizza","2900 Valmont Rd # A","Boulder","CO","80301","Verified","040.028734","-105.255592","581208","P"
"Fruition","3730 Star Ln","Boulder","CO","80301","Verified","040.042708","-105.251100","581208",""
"Fuji Caf & Bar","2018 Broadway","Boulder","CO","80302","Verified","040.018211","-105.279909","581208","J"
"Full Belly","2779 Iris Ave","Boulder","CO","80304","Verified","040.036558","-105.259382","581208",""
"Gaia Masala & Burger","1116 13th St","Boulder","CO","80302","Verified","040.007633","-105.276054","581208","e"
"Gaku Ramen II LLC","1119 13th St","Boulder","CO","80302","Verified","040.007658","-105.276586","581208","Y"
"Gluten Free Bistro","5131 Williams Fork Trl # 115","Boulder","CO","80301","Verified","040.067864","-105.199749","581208","A"
"Gold Hill Inn","401 Main St","Boulder","CO","80302","Verified","040.063068","-105.409050","581208","3"
"Golden Sun","1635 28th St","Boulder","CO","80301","Verified","040.015610","-105.259438","581212",""
"Gondolier Italian Eatery","4800 Baseline Rd # A104","Boulder","CO","80303","Verified","039.998439","-105.234243","581208","I"
"Good Apples","1636 16th St","Boulder","CO","80302","Verified","040.016023","-105.273380","581208",""
"Good Times 101","2050 26th St","Boulder","CO","80302","Verified","040.022504","-105.260896","581208","e"
"Goody Monster","1310 College Ave # 235","Boulder","CO","80302","Verified","040.007046","-105.275884","581208",""
"Greenbriar Inn","8735 N Foothills Hwy","Boulder","CO","80302","Verified","040.132187","-105.282912","581208","3"
"Greystone Castle Pop Up Rstrnt","5331 Flagstaff Rd","Boulder","CO","80302","Verified","039.979790","-105.329175","581208",""
"Gurkhas Curry Kitchen","4800 Baseline Rd # A107","Boulder","CO","80303","Verified","039.998439","-105.234243","581208","F"
"Gurkhas On The Hill","1310 College Ave #230","Boulder","CO","80302","Verified","040.007046","-105.275884","581208","Y"
"Half Fast Subs On The Hill","1215 13th St # A","Boulder","CO","80302","Verified","040.008990","-105.276576","581208","3"
"Haoway Chinese Cafe","1678 30th St","Boulder","CO","80301","Verified","040.016523","-105.253470","581208","C"
"Hapa Sushi Grill & Sake Bar","1117 Pearl St","Boulder","CO","80302","Verified","040.018018","-105.280880","581208","J"
"Harman-Management Corp","3210 Arapahoe Ave","Boulder","CO","80303","Verified","040.014331","-105.250934","581208",""
"Holy Sushi Inc","1136 Pearl St","Boulder","CO","80302","Verified","040.017517","-105.280284","581208","v"
"Hookah House","1325 Broadway # 215","Boulder","CO","80302","Verified","040.009898","-105.277055","581208",""
"Hotel Boulderado","2115 13th St","Boulder","CO","80302","Verified","040.019523","-105.279147","701101",""
"Hungry Toad","2543 Broadway St","Boulder","CO","80304","Verified","040.024335","-105.282434","581208","3"
"IHOP Restaurant","1675 28th St","Boulder","CO","80301","Verified","040.016354","-105.258795","581208","3"
"Il Pastaio Boulder","3075 Arapahoe Ave # B","Boulder","CO","80303","Verified","040.015136","-105.251852","581208","I"
"Illegal Pete","1320 College Ave","Boulder","CO","80302","Verified","040.007164","-105.275843","581208",""
"Illegal Pete's","1124 13th St","Boulder","CO","80302","Verified","040.007831","-105.275945","581208","V"
"Illegal Pete's","1447 Pearl St","Boulder","CO","80302","Verified","040.018829","-105.276314","581208","V"
"Izakaya Amu","1221 Spruce St","Boulder","CO","80302","Verified","040.019313","-105.279874","581208",""
"Jaipur Indian","1800 Broadway #160","Boulder","CO","80302","Verified","040.016509","-105.278806","581208","F"
"Jamba Juice","1669 Euclid Ave","Boulder","CO","80309","Verified","040.008300","-105.269200","581248",""
"Jamba Juice","3053 Arapahoe Ave","Boulder","CO","80303","Verified","040.015024","-105.252675","581248",""
"Japango Sushi Restaurant","1136 Pearl St # 100","Boulder","CO","80302","Verified","040.017517","-105.280284","581208","3"
"Jax Restaurant","928 Pearl St","Boulder","CO","80302","Verified","040.016916","-105.283201","581208","3"
"Jill's Restaurant","900 Walnut St","Boulder","CO","80302","Verified","040.015702","-105.282547","581208","A"
"Jimmy John's","1125 13th St","Boulder","CO","80302","Verified","040.007613","-105.276410","581208","D"
"Jimmy John's","3310 Arapahoe Ave","Boulder","CO","80303","Verified","040.014328","-105.249760","581208","D"
"Julia's Kitchen","4457 Broadway St","Boulder","CO","80304","Verified","040.055397","-105.282585","581208","3"
"Kalita Grill Greek Cafe","2426 Arapahoe Ave","Boulder","CO","80302","Verified","040.014474","-105.263225","581208","9"
"Kasa Japanese Grill & Bar","1468 Pearl St # 110","Boulder","CO","80302","Verified","040.018361","-105.276204","581208","Y"
"Kathmandu Restaurant","1964 28th St","Boulder","CO","80301","Verified","040.020806","-105.257671","581208","Y"
"KFC","3210 Arapahoe Ave # 274","Boulder","CO","80303","Verified","040.014331","-105.250934","581208","f"
"KHOW Thai Cafe","1600 Broadway","Boulder","CO","80302","Verified","040.013078","-105.278066","581208","Y"
"Kim Food To Go","1325 Broadway","Boulder","CO","80302","Verified","040.009898","-105.277055","581208","W"
"Kitchen","1039 Pearl St # B","Boulder","CO","80302","Verified","040.017844","-105.281718","581208","3"
"Korea House","2750 Glenwood Dr # 4","Boulder","CO","80304","Verified","040.032346","-105.259581","581208","Y"
"Kt's Bbq","2660 Broadway St","Boulder","CO","80304","Verified","040.025059","-105.281166","581208","E"
"Kt's Bbq","7464 Arapahoe Rd # A1","Boulder","CO","80303","Verified","040.013776","-105.179176","581208","E"
"Ku Cha House Of Tea","1211 Pearl St","Boulder","CO","80302","Verified","040.018251","-105.279752","549915",""
"LA Chosa","1203 13th St # A","Boulder","CO","80302","Verified","040.008842","-105.276578","581208",""
"LA Loma","4483 Broadway St","Boulder","CO","80304","Verified","040.055821","-105.282583","581208",""
"Le French Cafe","2525 Arapahoe Ave # C1","Boulder","CO","80302","Verified","040.015498","-105.262110","581208","1"
"Le Peep","2525 Arapahoe Ave # E50","Boulder","CO","80302","Verified","040.015498","-105.262110","581208","A"
"Leaf Vegetarian Restaurant","1710 Pearl St","Boulder","CO","80302","Verified","040.018772","-105.274109","581208","z"
"Lee Yaun Chinese Cuisine","4800 Baseline Rd","Boulder","CO","80303","Verified","039.998439","-105.234243","581208","C"
"Lindsay's Boulder Deli","1148 Pearl St","Boulder","CO","80302","Verified","040.017551","-105.280075","581208","A"
"Little Tibet","4479 Broadway St","Boulder","CO","80304","Verified","040.055821","-105.282583","581208",""
"Lolita's Market & Deli","800 Pearl St","Boulder","CO","80302","Verified","040.016584","-105.284841","581208","D"
"Los Agaves Restaurant","14497 Gold Hill Rd","Boulder","CO","80302","Verified","040.050423","-105.484825","581208",""
"Lucile's Creole Cafe","2124 14th St","Boulder","CO","80302","Verified","040.020070","-105.277675","581208","3"
"Lucky's Cafe","3980 Broadway St","Boulder","CO","80304","Verified","040.047540","-105.281719","581208",""
"MAD Greens","1805 29th St # 1144","Boulder","CO","80301","Verified","040.019300","-105.256829","581208","3"
"Make A Mess & Make Believe","1919 Yarmouth Ave","Boulder","CO","80304","Verified","040.058621","-105.272223","581208",""
"Mandala Infusion LLC","4479 Broadway St","Boulder","CO","80304","Verified","040.055821","-105.282583","581208","g"
"Mantra","1630 30th St # B","Boulder","CO","80301","Verified","040.015830","-105.252371","581208",""
"Martys Meals Inc","2750 Glenwood Dr","Boulder","CO","80304","Verified","040.032346","-105.259581","581208",""
"Mateo Restaurant","1837 Pearl St","Boulder","CO","80302","Verified","040.020027","-105.271139","581208","1"
"May Wah Chinese-Vietnamese","2500 Baseline Rd","Boulder","CO","80305","Verified","040.000027","-105.262322","581208","C"
"Mc Donald's","1800 28th St","Boulder","CO","80301","Verified","040.019308","-105.257960","581208","e"
"Mc Donald's","2920 Baseline Rd","Boulder","CO","80303","Verified","039.999468","-105.255144","581208","e"
"Mc Donald's Corporate Office","6151 Songbird Cir","Boulder","CO","80303","Verified","040.008905","-105.210164","581220",""
"Mcdevitt Taco Supply","4800 Baseline Rd #C110","Boulder","CO","80303","Verified","039.998439","-105.234243","581208","V"
"Mediterranean Markets","2690 28th St","Boulder","CO","80301","Verified","040.027041","-105.257614","541105",""
"Mediterranean Restaurant","1002 Walnut St # 101b","Boulder","CO","80302","Verified","040.016101","-105.281852","581208","m"
"Millennium Harvest Hse Boulder","1345 28th St","Boulder","CO","80302","Verified","040.018700","-105.287200","581208",""
"Modern Market","1600 28th St # 1212","Boulder","CO","80301","Verified","040.018188","-105.255928","581208","A"
"Moe's Broadway Bagel","3267 28th St","Boulder","CO","80301","Verified","040.033947","-105.259262","581208","X"
"Moe's Original BBQ","675 30th St","Boulder","CO","80303","Verified","039.999470","-105.253274","581208","E"
"Mojo Taqueria Boulder","2785 Iris Ave","Boulder","CO","80304","Verified","040.037491","-105.259224","581208","V"
"Motherlode Cafe","6315 Lookout Rd","Boulder","CO","80301","Verified","040.071911","-105.206427","581208","3"
"Motherlode Cafe & Tavern","6315 Lookout Rd","Boulder","CO","80301","Verified","040.071911","-105.206427","581208",""
"Motomaki","1600 28th St #1216","Boulder","CO","80301","Verified","040.018188","-105.255928","581208","8"
"Mountain Sun Pub & Brewery","1535 Pearl St","Boulder","CO","80302","Verified","040.019171","-105.275298","581208","e"
"Murphy's Grill","2731 Iris Ave","Boulder","CO","80304","Verified","040.037437","-105.260162","581208","3"
"Murphys","657 S Broadway St","Boulder","CO","80305","Verified","039.981954","-105.246866","581208","3"
"Mustard's Last Stand","1719 Broadway","Boulder","CO","80302","Verified","040.014448","-105.278980","581208","3"
"My Ramen & Izakaya","3280 28th St # 2","Boulder","CO","80301","Verified","040.034336","-105.258179","581208","Y"
"Naked Lunch","3301 Arapahoe Ave","Boulder","CO","80303","Verified","040.015460","-105.249345","581208",""
"Native Foods","1675 29th St # 1272","Boulder","CO","80301","Verified","040.016882","-105.256297","581208","4"
"Native Roots Dispensary","845 Walnut St","Boulder","CO","80302","Verified","040.016157","-105.284048","512227",""
"Nepal Cuisine","4720 Table Mesa Dr # C100","Boulder","CO","80305","Verified","039.984990","-105.238666","581208","Y"
"Next Door American Eatery","1035 Pearl St","Boulder","CO","80302","Verified","040.017798","-105.281898","581208","3"
"Noodles & Company","1245 Alpine Ave","Boulder","CO","80304","Verified","040.025929","-105.281367","581208","g"
"Noodles & Company","1600 28th St # 1208","Boulder","CO","80301","Verified","040.018188","-105.255928","581208","g"
"Noodles & Company","2602 Baseline Rd","Boulder","CO","80305","Verified","040.000156","-105.261463","581208","g"
"Nopalitos","2850 Iris Ave #H","Boulder","CO","80301","Verified","040.035632","-105.256288","581208",""
"North End At 4580","4580 Broadway St #D","Boulder","CO","80304","Verified","040.057503","-105.281564","581208","3"
"Oak At Fourteenth","1400 Pearl St","Boulder","CO","80302","Verified","040.018236","-105.277077","581208",""
"Oregano's Pizza Bistro","2690 Baseline Rd","Boulder","CO","80305","Verified","039.999786","-105.260498","581222",""
"Organic Sandwich Co","1500 Pearl St","Boulder","CO","80302","Verified","040.018545","-105.275308","581208","D"
"Oriental Cafe","1305 Broadway","Boulder","CO","80302","Verified","040.009567","-105.276528","581208","Y"
"Osaka's","2460 Canyon Blvd","Boulder","CO","80302","Verified","040.017022","-105.262221","581208",""
"Oskar Blues Brewery","921 Pearl St","Boulder","CO","80302","Verified","040.017301","-105.283500","208201",""
"Out The Bottle Boulder #1 LLC","675 30th St # 679","Boulder","CO","80303","Verified","039.999470","-105.253274","581208",""
"Outback Saloon","3141 28th St","Boulder","CO","80301","Verified","040.031726","-105.259265","581301",""
